NORAD_CAT_ID,OBJECT_NAME,OBJECT_TYPE,EPOCH,MEAN_MOTION,ECCENTRICITY,INCLINATION,RA_OF_ASC_NODE,ARG_OF_PERICENTER,MEAN_ANOMALY,BSTAR,MEAN_MOTION_DOT,MEAN_MOTION_DDOT,TLE_LINE0,TLE_LINE1,TLE_LINE2,SEMIMAJOR_AXIS,PERIOD,APOGEE,PERIGEE,DECAYED
53632.0,STARLINK-4606,PAYLOAD,2022-10-26 14:00:01,15.7318103,0.000383,53.2136,353.7385,14.7459,53.7215,0.00071133,0.00100357,0.0,0 STARLINK-4606,1 53632U 22104AW  22299.58334491  .00100357  00000-0  71133-3 0  9993,2 53632  53.2136 353.7385 0003830  14.7459  53.7215 15.73181030  9392,6727.949000000001,91.534,352.391,347.237,0.0
53632.0,STARLINK-4606,PAYLOAD,2022-10-26 22:00:00,15.73271175,0.0003642,53.2142,352.0863,13.4549,143.9581,-0.000473,-0.00066712,0.0,0 STARLINK-4606,1 53632U 22104AW  22299.91667824 -.00066712  00000-0 -47300-3 0  9996,2 53632  53.2142 352.0863 0003642  13.4549 143.9581 15.73271175  1300,6727.691999999999,91.529,352.00699999999995,347.107,0.0
53632.0,STARLINK-4606,PAYLOAD,2022-10-27 06:00:00,15.73346555,0.0003272,53.2155,350.4338,7.0909,239.3033,-0.0025395,-0.00345136,0.0,0 STARLINK-4606,1 53632U 22104AW  22300.25001157 -.00345136  00000-0 -25395-2 0  9996,2 53632  53.2155 350.4338 0003272   7.0909 239.3033 15.73346555  9496,6727.477,91.525,351.5440000000001,347.141,0.0
53632.0,STARLINK-4606,PAYLOAD,2022-10-27 14:00:01,15.73177444,0.0003159,53.2165,348.7845,337.4883,357.9381,-0.0061356,-0.00785319,0.0,0 STARLINK-4606,1 53632U 22104AW  22300.58335648 -.00785319  00000-0 -61356-2 0  9995,2 53632  53.2165 348.7845 0003159 337.4883 357.9381 15.73177444  1309,6727.959,91.534,351.95,347.699,0.0
53632.0,STARLINK-4606,PAYLOAD,2022-10-27 22:00:00,15.72608771,0.0004633999999999,53.2175,347.1322,290.1276,133.8125,-0.0089617999999999,-0.01099993,0.0,0 STARLINK-4606,1 53632U 22104AW  22300.91667824 -.01099993  00000-0 -89618-2 0  9994,2 53632  53.2175 347.1322 0004634 290.1276 133.8125 15.72608771  1301,6729.581,91.568,354.565,348.32800000000015,0.0
53632.0,STARLINK-4606,PAYLOAD,2022-10-28 00:00:02,15.72419218,0.0004777,53.2172,346.7198,286.1693,249.857,-0.009233,-0.01121635,0.0,0 STARLINK-4606,1 53632U 22104AW  22301.00002315 -.01121635  00000-0 -92330-2 0  9997,2 53632  53.2172 346.7198 0004777 286.1693 249.8570 15.72419218  9610,6730.121999999999,91.579,355.202,348.772,0.0
53632.0,STARLINK-4606,PAYLOAD,2022-10-28 14:00:01,15.70974469,0.0006516,53.2168,343.8425,270.349,328.153,-0.0095192,-0.01091923,0.0,0 STARLINK-4606,1 53632U 22104AW  22301.58335648 -.01091923  00000-0 -95192-2 0  9993,2 53632  53.2168 343.8425 0006516 270.3490 328.1530 15.70974469  1306,6734.248000000001,91.663,360.501,351.725,0.0
53632.0,STARLINK-4606,PAYLOAD,2022-10-28 22:00:01,15.7016631,0.0004726,53.2175,342.1966,268.2222,56.0587,-0.0099026,-0.01095996,0.0,0 STARLINK-4606,1 53632U 22104AW  22301.91668981 -.01095996  00000-0 -99026-2 0  9993,2 53632  53.2175 342.1966 0004726 268.2222  56.0587 15.70166310  9750,6736.558000000001,91.71,361.607,355.24,0.0
53632.0,STARLINK-4606,PAYLOAD,2022-10-29 12:00:00,15.68756254,0.0002415,53.2177,339.3278,272.7909,109.1812,-0.010744,-0.01117111,0.0,0 STARLINK-4606,1 53632U 22104AW  22302.50001157 -.01117111  00000-0 -10744-1 0  9998,2 53632  53.2177 339.3278 0002415 272.7909 109.1812 15.68756254  1304,6740.594,91.792,364.087,360.832,0.0
53632.0,STARLINK-4606,PAYLOAD,2022-10-29 22:00:01,15.67738762,0.0001041,53.2174,337.2788,74.0197,141.7312,-0.011212,-0.01135365,0.0,0 STARLINK-4606,1 53632U 22104AW  22302.91668981 -.01135365  00000-0 -11212-1 0  9999,2 53632  53.2174 337.2788 0001041  74.0197 141.7312 15.67738762  1300,6743.511,91.852,366.078,364.674,0.0
53632.0,STARLINK-4606,PAYLOAD,2022-10-30 00:00:00,15.67534685,9.74e-05,53.2173,336.8696,77.5579,248.6877,-0.011301,-0.0113485,0.0,0 STARLINK-4606,1 53632U 22104AW  22303.00001157 -.01134850  00000-0 -11301-1 0  9993,2 53632  53.2173 336.8696 0000974  77.5579 248.6877 15.67534685  9925,6744.096,91.864,366.61800000000005,365.304,0.0
53632.0,STARLINK-4606,PAYLOAD,2022-10-30 14:00:01,15.66008465,9.27e-05,53.2171,334.0125,50.0016,328.4903,-0.0103439999999999,-0.00974982,0.0,0 STARLINK-4606,1 53632U 22104AW  22303.58334491 -.00974982  00000-0 -10344-1 0  9999,2 53632  53.2171 334.0125 0000927  50.0016 328.4903 15.66008465  1302,6748.477,91.954,370.968,369.716,0.0
53632.0,STARLINK-4606,PAYLOAD,2022-10-30 22:00:01,15.65300697,0.0001226,53.2173,332.3791,64.2471,34.1754,-0.012416,-0.0113831,0.0,0 STARLINK-4606,1 53632U 22104AW  22303.91668981 -.01138310  00000-0 -12416-1 0  9990,2 53632  53.2173 332.3791 0001226  64.2471  34.1754 15.65300697  1305,6750.511,91.995,373.204,371.548,0.0
53632.0,STARLINK-4606,PAYLOAD,2022-10-31 14:00:01,15.63645948,0.0001144,53.2167,329.125,76.5304,178.7308,-0.012761,-0.01098926,0.0,0 STARLINK-4606,1 53632U 22104AW  22304.58334491 -.01098926  00000-0 -12761-1 0  9991,2 53632  53.2167 329.1250 0001144  76.5304 178.7308 15.63645948  1301,6755.273,92.092,377.911,376.365,0.0
53632.0,STARLINK-4606,PAYLOAD,2022-10-31 22:00:01,15.6285521,0.0001014,53.2174,327.4969,73.4983,258.7997,-0.013607,-0.01132203,0.0,0 STARLINK-4606,1 53632U 22104AW  22304.91668981 -.01132203  00000-0 -13607-1 0  9999,2 53632  53.2174 327.4969 0001014  73.4983 258.7997 15.62855210  1309,6757.551,92.139,380.101,378.731,0.0
53632.0,STARLINK-4606,PAYLOAD,2022-11-01 14:00:01,15.61233543,0.0001277,53.2167,324.2547,56.1197,67.1353,-0.014606,-0.01139806,0.0,0 STARLINK-4606,1 53632U 22104AW  22305.58334491 -.01139806  00000-0 -14606-1 0  9995,2 53632  53.2167 324.2547 0001277  56.1197  67.1353 15.61233543  1300,6762.23,92.235,384.958,383.231,0.0
53632.0,STARLINK-4606,PAYLOAD,2022-11-01 22:00:00,15.60414732,0.0001237,53.2172,322.6327,72.0613,125.2436,-0.014966,-0.01132162,0.0,0 STARLINK-4606,1 53632U 22104AW  22305.91667824 -.01132162  00000-0 -14966-1 0  9998,2 53632  53.2172 322.6327 0001237  72.0613 125.2436 15.60414732  1308,6764.595,92.283,387.297,385.62300000000016,0.0
53632.0,STARLINK-4606,PAYLOAD,2022-11-02 14:00:01,15.58789256,0.0001059,53.2172,319.4017,64.051,278.4106,-0.015959,-0.01133953,0.0,0 STARLINK-4606,1 53632U 22104AW  22306.58334491 -.01133953  00000-0 -15959-1 0  9995,2 53632  53.2172 319.4017 0001059  64.0510 278.4106 15.58789256 10484,6769.297,92.379,391.879,390.445,0.0
53632.0,STARLINK-4606,PAYLOAD,2022-11-02 22:00:00,15.57973248,0.0001083,53.2174,317.7862,66.0677,347.5092,-0.016427,-0.0113177,0.0,0 STARLINK-4606,1 53632U 22104AW  22306.91667824 -.01131770  00000-0 -16427-1 0  9997,2 53632  53.2174 317.7862 0001083  66.0677 347.5092 15.57973248  1306,6771.661,92.428,394.259,392.792,0.0
53632.0,STARLINK-4606,PAYLOAD,2022-11-03 06:00:02,15.57160981,0.0001304,53.2171,316.1764,69.0505,54.7244,-0.016964,-0.01133344,0.0,0 STARLINK-4606,1 53632U 22104AW  22307.25002315 -.01133344  00000-0 -16964-1 0  9998,2 53632  53.2171 316.1764 0001304  69.0505  54.7244 15.57160981 10595,6774.015,92.476,396.764,394.997,0.0
53632.0,STARLINK-4606,PAYLOAD,2022-11-03 14:00:01,15.56356845,0.0001453999999999,53.2165,314.5676,55.4498,137.4122,-0.017703,-0.0114621,0.0,0 STARLINK-4606,1 53632U 22104AW  22307.58334491 -.01146210  00000-0 -17703-1 0  9995,2 53632  53.2165 314.5676 0001454  55.4498 137.4122 15.56356845  1306,6776.348000000001,92.524,399.199,397.228,0.0
53632.0,STARLINK-4606,PAYLOAD,2022-11-04 00:00:00,15.55327875,0.0001183,53.2176,312.5559,56.0016,311.9382,-0.018089,-0.01128845,0.0,0 STARLINK-4606,1 53632U 22104AW  22308.00001157 -.01128845  00000-0 -18089-1 0  9995,2 53632  53.2176 312.5559 0001183  56.0016 311.9382 15.55327875  1305,6779.337,92.585,402.004,400.4,0.0
53632.0,STARLINK-4606,PAYLOAD,2022-11-04 06:00:00,15.54718815,0.0001233,53.2175,311.3535,55.1936,273.05400000000003,-0.018536,-0.01130744,0.0,0 STARLINK-4606,1 53632U 22104AW  22308.25001157 -.01130744  00000-0 -18536-1 0  9990,2 53632  53.2175 311.3535 0001233  55.1936 273.0540 15.54718815 10741,6781.107,92.621,403.8080000000001,402.136,0.0
53632.0,STARLINK-4606,PAYLOAD,2022-11-04 14:00:01,15.53905746,0.0001281,53.2172,309.7498,47.2919,347.1789,-0.019108,-0.01131198,0.0,0 STARLINK-4606,1 53632U 22104AW  22308.58334491 -.01131198  00000-0 -19108-1 0  9996,2 53632  53.2172 309.7498 0001281  47.2919 347.1789 15.53905746  1303,6783.472,92.67,406.206,404.468,0.0
53632.0,STARLINK-4606,PAYLOAD,2022-11-04 22:00:01,15.53091974,0.0001336,53.2168,308.1469,54.3035,45.4785,-0.019707,-0.01132303,0.0,0 STARLINK-4606,1 53632U 22104AW  22308.91668981 -.01132303  00000-0 -19707-1 0  9991,2 53632  53.2168 308.1469 0001336  54.3035  45.4785 15.53091974 10851,6785.842,92.718,408.61300000000006,406.8,0.0
53632.0,STARLINK-4606,PAYLOAD,2022-11-05 00:00:00,15.52887213,0.0001386999999999,53.2173,307.7464,64.0461,141.83,-0.019777,-0.01128309,0.0,0 STARLINK-4606,1 53632U 22104AW  22309.00001157 -.01128309  00000-0 -19777-1 0  9996,2 53632  53.2173 307.7464 0001387  64.0461 141.8300 15.52887213  1306,6786.438,92.73,409.244,407.362,0.0
53632.0,STARLINK-4606,PAYLOAD,2022-11-05 14:00:01,15.5148073,0.0001262999999999,53.2161,304.951,62.1099,165.2214,-0.021358,-0.01154955,0.0,0 STARLINK-4606,1 53632U 22104AW  22309.58335648 -.01154955  00000-0 -21358-1 0  9998,2 53632  53.2161 304.9510 0001263  62.1099 165.2214 15.51480730  1309,6790.5390000000025,92.815,413.262,411.546,0.0
53632.0,STARLINK-4606,PAYLOAD,2022-11-05 22:00:01,15.50524288,0.0001157,53.2163,303.3536,65.0169,224.6501,-0.01308,-0.00695837,0.0,0 STARLINK-4606,1 53632U 22104AW  22309.91668981 -.00695837  00000-0 -13080-1 0  9995,2 53632  53.2163 303.3536 0001157  65.0169 224.6501 15.50524288 11007,6793.331,92.872,415.982,414.41,0.0
53632.0,STARLINK-4606,PAYLOAD,2022-11-06 06:00:00,15.50077826,0.0001291999999999,53.2159,301.7616,76.3419,274.524,-0.0042088,-0.00233923,0.0,0 STARLINK-4606,1 53632U 22104AW  22310.25001157 -.00233923  00000-0 -42088-2 0  9995,2 53632  53.2159 301.7616 0001292  76.3419 274.5240 15.50077826 11056,6794.636,92.899,417.378,415.62300000000016,0.0
